[Satellite]
VERSION=1.1
NAME=EO-88
NICKNAME=EO-88
TLE1=1 42017U 17008BX  20157.74978210  .00001348  00000-0  54425-4 0  9993
TLE2=2 42017  97.3602 225.4825 0006526  19.7818 340.3673 15.26472775183761
STATUS=0
